{
  "type": "FeatureCollection",
  "features": [
    {
      "type": "Feature",
      "properties": {
        "norad_id": 57400,
        "name": "TIANMU-1 08",
        "group": "weather",
        "lat": 80.00490627330348,
        "lon": -11.094826226192382,
        "alt_km": 469.1465019151128,
        "timestamp": "2025-12-11T18:59:45.708751+00:00",
        "meta_object_name": "TIANMU-1 08",
        "meta_object_id": "2023-101B",
        "meta_epoch": "2025-12-11T06:03:37.924992",
        "meta_mean_motion": 15.28019625,
        "meta_eccentricity": 0.00075563,
        "meta_inclination": 97.2866,
        "meta_ra_of_asc_node": 34.933,
        "meta_arg_of_pericenter": 87.9823,
        "meta_mean_anomaly": 272.2282,
        "meta_ephemeris_type": 0,
        "meta_classification_type": "U",
        "meta_norad_cat_id": 57400,
        "meta_element_set_no": 999,
        "meta_rev_at_epoch": 13292,
        "meta_bstar": 0.00041334446,
        "meta_mean_motion_dot": 0.00011239,
        "meta_mean_motion_ddot": 0,
        "tle_line1": "1 57400U 23101B   25345.25252228  .00011239  00000+0  41334-3 0  9993",
        "tle_line2": "2 57400  97.2866  34.9330 0007556  87.9823 272.2282 15.28019625132929"
      },
      "geometry": {
        "type": "Point",
        "coordinates": [
          -11.094826226192382,
          80.00490627330348
        ]
      }
    },
    {
      "type": "Feature",
      "properties": {
        "norad_id": 57401,
        "name": "TIANMU-1 09",
        "group": "weather",
        "lat": 23.853790820304514,
        "lon": -141.78446276977363,
        "alt_km": 479.4644036187274,
        "timestamp": "2025-12-11T18:59:45.708761+00:00",
        "meta_object_name": "TIANMU-1 09",
        "meta_object_id": "2023-101C",
        "meta_epoch": "2025-12-11T05:44:38.485248",
        "meta_mean_motion": 15.28064621,
        "meta_eccentricity": 0.00067875,
        "meta_inclination": 97.2823,
        "meta_ra_of_asc_node": 34.4344,
        "meta_arg_of_pericenter": 87.8921,
        "meta_mean_anomaly": 272.3096,
        "meta_ephemeris_type": 0,
        "meta_classification_type": "U",
        "meta_norad_cat_id": 57401,
        "meta_element_set_no": 999,
        "meta_rev_at_epoch": 13292,
        "meta_bstar": 0.00095367616,
        "meta_mean_motion_dot": 0.00026108,
        "meta_mean_motion_ddot": 0,
        "tle_line1": "1 57401U 23101C   25345.23933432  .00026108  00000+0  95368-3 0  9992",
        "tle_line2": "2 57401  97.2823  34.4344 0006787  87.8921 272.3096 15.28064621132926"
      },
      "geometry": {
        "type": "Point",
        "coordinates": [
          -141.78446276977363,
          23.853790820304514
        ]
      }
    },
    {
      "type": "Feature",
      "properties": {
        "norad_id": 57402,
        "name": "TIANMU-1 10",
        "group": "weather",
        "lat": -32.1886801978837,
        "lon": 40.444937905897866,
        "alt_km": 490.4935679760283,
        "timestamp": "2025-12-11T18:59:45.708797+00:00",
        "meta_object_name": "TIANMU-1 10",
        "meta_object_id": "2023-101D",
        "meta_epoch": "2025-12-11T06:33:53.913024",
        "meta_mean_motion": 15.2805741,
        "meta_eccentricity": 0.00085758,
        "meta_inclination": 97.2904,
        "meta_ra_of_asc_node": 35.316,
        "meta_arg_of_pericenter": 87.6289,
        "meta_mean_anomaly": 272.5933,
        "meta_ephemeris_type": 0,
        "meta_classification_type": "U",
        "meta_norad_cat_id": 57402,
        "meta_element_set_no": 999,
        "meta_rev_at_epoch": 13292,
        "meta_bstar": 0.00095599133,
        "meta_mean_motion_dot": 0.00026177,
        "meta_mean_motion_ddot": 0,
        "tle_line1": "1 57402U 23101D   25345.27354066  .00026177  00000+0  95599-3 0  9999",
        "tle_line2": "2 57402  97.2904  35.3160 0008575  87.6289 272.5933 15.28057410132925"
      },
      "geometry": {
        "type": "Point",
        "coordinates": [
          40.444937905897866,
          -32.1886801978837
        ]
      }
    },
    {
      "type": "Feature",
      "properties": {
        "norad_id": 57490,
        "name": "FENGYUN 3F",
        "group": "weather",
        "lat": -55.07317445208143,
        "lon": -138.57889858333476,
        "alt_km": 833.0660722902694,
        "timestamp": "2025-12-11T18:59:45.708818+00:00",
        "meta_object_name": "FENGYUN 3F",
        "meta_object_id": "2023-111A",
        "meta_epoch": "2025-12-11T06:02:58.332192",
        "meta_mean_motion": 14.19892948,
        "meta_eccentricity": 6.544e-05,
        "meta_inclination": 98.7085,
        "meta_ra_of_asc_node": 53.5695,
        "meta_arg_of_pericenter": 99.0458,
        "meta_mean_anomaly": 261.0793,
        "meta_ephemeris_type": 0,
        "meta_classification_type": "U",
        "meta_norad_cat_id": 57490,
        "meta_element_set_no": 999,
        "meta_rev_at_epoch": 12219,
        "meta_bstar": 8.0611345e-05,
        "meta_mean_motion_dot": 1.27e-06,
        "meta_mean_motion_ddot": 0,
        "tle_line1": "1 57490U 23111A   25345.25206403  .00000127  00000+0  80611-4 0  9993",
        "tle_line2": "2 57490  98.7085  53.5695 0000654  99.0458 261.0793 14.19892948122195"
      },
      "geometry": {
        "type": "Point",
        "coordinates": [
          -138.57889858333476,
          -55.07317445208143
        ]
      }
    },
    {
      "type": "Feature",
      "properties": {
        "norad_id": 58584,
        "name": "ARKTIKA-M 2",
        "group": "weather",
        "lat": -23.226640086264364,
        "lon": 7.50729441800802,
        "alt_km": 4243.115042282908,
        "timestamp": "2025-12-11T18:59:45.708831+00:00",
        "meta_object_name": "ARKTIKA-M 2",
        "meta_object_id": "2023-198A",
        "meta_epoch": "2025-12-08T20:10:13.977120",
        "meta_mean_motion": 2.0060476,
        "meta_eccentricity": 0.68646991,
        "meta_inclination": 63.2247,
        "meta_ra_of_asc_node": 175.3152,
        "meta_arg_of_pericenter": 268.1185,
        "meta_mean_anomaly": 18.8267,
        "meta_ephemeris_type": 0,
        "meta_classification_type": "U",
        "meta_norad_cat_id": 58584,
        "meta_element_set_no": 999,
        "meta_rev_at_epoch": 1450,
        "meta_bstar": 0,
        "meta_mean_motion_dot": 1.66e-06,
        "meta_mean_motion_ddot": 0,
        "tle_line1": "1 58584U 23198A   25342.84043955  .00000166  00000+0  00000+0 0  9998",
        "tle_line2": "2 58584  63.2247 175.3152 6864699 268.1185  18.8267  2.00604760 14506"
      },
      "geometry": {
        "type": "Point",
        "coordinates": [
          7.50729441800802,
          -23.226640086264364
        ]
      }
    },
    {
      "type": "Feature",
      "properties": {
        "norad_id": 58645,
        "name": "TIANMU-1 11",
        "group": "weather",
        "lat": 21.11835727424881,
        "lon": -171.7066114900558,
        "alt_km": 497.07327554448784,
        "timestamp": "2025-12-11T18:59:45.708845+00:00",
        "meta_object_name": "TIANMU-1 11",
        "meta_object_id": "2023-205A",
        "meta_epoch": "2025-12-11T07:16:32.452032",
        "meta_mean_motion": 15.24571305,
        "meta_eccentricity": 0.00080252,
        "meta_inclination": 97.3611,
        "meta_ra_of_asc_node": 4.9515,
        "meta_arg_of_pericenter": 316.4338,
        "meta_mean_anomaly": 43.6265,
        "meta_ephemeris_type": 0,
        "meta_classification_type": "U",
        "meta_norad_cat_id": 58645,
        "meta_element_set_no": 999,
        "meta_rev_at_epoch": 10887,
        "meta_bstar": 0.00040448089,
        "meta_mean_motion_dot": 9.907e-05,
        "meta_mean_motion_ddot": 0,
        "tle_line1": "1 58645U 23205A   25345.30315338  .00009907  00000+0  40448-3 0  9992",
        "tle_line2": "2 58645  97.3611   4.9515 0008025 316.4338  43.6265 15.24571305108877"
      },
      "geometry": {
        "type": "Point",
        "coordinates": [
          -171.7066114900558,
          21.11835727424881
        ]
      }
    },
    {
      "type": "Feature",
      "properties": {
        "norad_id": 58646,
        "name": "TIANMU-1 12",
        "group": "weather",
        "lat": 11.134728695699764,
        "lon": 3.779307661620918,
        "alt_km": 492.82016069972815,
        "timestamp": "2025-12-11T18:59:45.708855+00:00",
        "meta_object_name": "TIANMU-1 12",
        "meta_object_id": "2023-205B",
        "meta_epoch": "2025-12-11T06:20:39.755328",
        "meta_mean_motion": 15.24467954,
        "meta_eccentricity": 0.00059231,
        "meta_inclination": 97.3599,
        "meta_ra_of_asc_node": 4.7193,
        "meta_arg_of_pericenter": 297.9119,
        "meta_mean_anomaly": 62.1518,
        "meta_ephemeris_type": 0,
        "meta_classification_type": "U",
        "meta_norad_cat_id": 58646,
        "meta_element_set_no": 999,
        "meta_rev_at_epoch": 10885,
        "meta_bstar": 0.00080057896,
        "meta_mean_motion_dot": 0.00019635,
        "meta_mean_motion_ddot": 0,
        "tle_line1": "1 58646U 23205B   25345.26434902  .00019635  00000+0  80058-3 0  9997",
        "tle_line2": "2 58646  97.3599   4.7193 0005923 297.9119  62.1518 15.24467954108856"
      },
      "geometry": {
        "type": "Point",
        "coordinates": [
          3.779307661620918,
          11.134728695699764
        ]
      }
    }
  ]
}